SL-16 R/B               
1 22803U 93059B   26097.97981992  .00000248  00000+0  14617-3 0  9994
2 22803  70.9903 309.3617 0016818 172.9481 187.1883 14.17236401683686
ARIANE 40 R/B           
1 22830U 93061H   26098.16690436  .00000209  00000+0  92234-4 0  9998
2 22830  98.4864 166.4650 0010597 190.6668 169.4293 14.32877899698322
COSMOS 2278             
1 23087U 94023A   26098.30165777  .00000130  00000+0  92773-4 0  9994
2 23087  71.0503 113.1448 0009468 330.4533  29.6053 14.14375815648998
SL-16 R/B               
1 23088U 94023B   26098.19337787 -.00000017  00000+0  15949-4 0  9999
2 23088  71.0033   8.9267 0005651 260.3759  99.6726 14.15020442650269
SL-16 R/B               
1 23343U 94074B   26098.07247800  .00000454  00000+0  67397-4 0  9990
2 23343  97.7063 127.6944 0007883 119.7559 264.2821 14.79443398691592
SL-16 R/B               
1 23405U 94077B   26097.95148829 -.00000168  00000+0 -61313-4 0  9995
2 23405  70.9814 290.9282 0001404 181.5445 178.5674 14.15566997620373
ARIANE 40+ R/B          
1 23561U 95021B   26098.20518446  .00000281  00000+0  10343-3 0  9993
2 23561  98.4448 169.2805 0007678  60.4488 318.9781 14.39795028623494
SL-16 R/B               
1 23705U 95058B   26098.31325619  .00000151  00000+0  10166-3 0  9992
2 23705  71.0187 118.0625 0010431  71.6384 288.5872 14.15498623572045
SL-16 R/B               
1 24298U 96051B   26098.27343079  .00000050  00000+0  53598-4 0  9994
2 24298  70.7580 112.6221 0012887  98.7836 261.4744 14.12424087525829
ORBVIEW 2 (SEASTAR)     
1 24883U 97037A   26098.18044416  .00000264  00000+0  10793-3 0  9998
2 24883  98.8619 263.2816 0001861   3.4356 356.6842 14.35516806512701
SL-16 R/B               
1 25400U 98043G   26098.27029134  .00000063  00000+0  45599-4 0  9992
2 25400  98.8301  51.8527 0008826 291.4496  68.5741 14.26056994443209
SL-16 R/B               
1 25407U 98045B   26098.30963010  .00000252  00000+0  15128-3 0  9999
2 25407  71.0087 119.2854 0008432 325.4410  34.6164 14.16195220431293
ISS (ZARYA)             
1 25544U 98067A   26098.00520295  .00007234  00000+0  14015-3 0  9997
2 25544  51.6328 287.4161 0006332 285.7518  74.2772 15.48824658560872
CZ-4B R/B               
1 25732U 99025C   26098.15639667  .00000051  00000+0  45466-4 0  9996
2 25732  98.6564 141.7315 0035989 259.7623 170.4338 14.18271530392348
OKEAN-O                 
1 25860U 99039A   26098.12220973  .00000617  00000+0  87637-4 0  9990
2 25860  97.9382 157.7054 0000992 109.6309 250.5011 14.80385013438741
SL-16 R/B               
1 25861U 99039B   26098.07445094  .00000587  00000+0  81058-4 0  9995
2 25861  97.9903 157.1178 0015349 157.3874 202.8018 14.81774569441213
DELTA 2 R/B             
1 25876U 99041E   26098.24434705  .00000626  00000+0  14073-3 0  9996
2 25876  51.7608 183.2149 0502627  75.5846 290.0309 14.11905801367203
