[{"OBJECT_NAME":"SL-16 R/B","OBJECT_ID":"1993-059B","EPOCH":"2026-04-07T23:30:56.441088","MEAN_MOTION":14.17236401,"ECCENTRICITY":0.00168187,"INCLINATION":70.9903,"RA_OF_ASC_NODE":309.3617,"ARG_OF_PERICENTER":172.9481,"MEAN_ANOMALY":187.1883,"EPHEMERIS_TYPE":0,"CLASSIFICATION_TYPE":"U","NORAD_CAT_ID":22803,"ELEMENT_SET_NO":999,"REV_AT_EPOCH":68368,"BSTAR":0.00014617222,"MEAN_MOTION_DOT":2.48e-6,"MEAN_MOTION_DDOT":0},{"OBJECT_NAME":"ARIANE 40 R/B","OBJECT_ID":"1993-061H","EPOCH":"2026-04-08T04:00:20.536704","MEAN_MOTION":14.32877899,"ECCENTRICITY":0.00105977,"INCLINATION":98.4864,"RA_OF_ASC_NODE":166.465,"ARG_OF_PERICENTER":190.6668,"MEAN_ANOMALY":169.4293,"EPHEMERIS_TYPE":0,"CLASSIFICATION_TYPE":"U","NORAD_CAT_ID":22830,"ELEMENT_SET_NO":999,"REV_AT_EPOCH":69832,"BSTAR":9.2233884e-5,"MEAN_MOTION_DOT":2.09e-6,"MEAN_MOTION_DDOT":0},{"OBJECT_NAME":"COSMOS 2278","OBJECT_ID":"1994-023A","EPOCH":"2026-04-08T07:14:23.231328","MEAN_MOTION":14.14375815,"ECCENTRICITY":0.00094688,"INCLINATION":71.0503,"RA_OF_ASC_NODE":113.1448,"ARG_OF_PERICENTER":330.4533,"MEAN_ANOMALY":29.6053,"EPHEMERIS_TYPE":0,"CLASSIFICATION_TYPE":"U","NORAD_CAT_ID":23087,"ELEMENT_SET_NO":999,"REV_AT_EPOCH":64899,"BSTAR":9.2773167e-5,"MEAN_MOTION_DOT":1.3e-6,"MEAN_MOTION_DDOT":0},{"OBJECT_NAME":"SL-16 R/B","OBJECT_ID":"1994-023B","EPOCH":"2026-04-08T04:38:27.847968","MEAN_MOTION":14.15020442,"ECCENTRICITY":0.00056518,"INCLINATION":71.0033,"RA_OF_ASC_NODE":8.9267,"ARG_OF_PERICENTER":260.3759,"MEAN_ANOMALY":99.6726,"EPHEMERIS_TYPE":0,"CLASSIFICATION_TYPE":"U","NORAD_CAT_ID":23088,"ELEMENT_SET_NO":999,"REV_AT_EPOCH":65026,"BSTAR":1.5948851e-5,"MEAN_MOTION_DOT":-1.7e-7,"MEAN_MOTION_DDOT":0},{"OBJECT_NAME":"SL-16 R/B","OBJECT_ID":"1994-074B","EPOCH":"2026-04-08T01:44:22.099200","MEAN_MOTION":14.79443398,"ECCENTRICITY":0.00078833,"INCLINATION":97.7063,"RA_OF_ASC_NODE":127.6944,"ARG_OF_PERICENTER":119.7559,"MEAN_ANOMALY":264.2821,"EPHEMERIS_TYPE":0,"CLASSIFICATION_TYPE":"U","NORAD_CAT_ID":23343,"ELEMENT_SET_NO":999,"REV_AT_EPOCH":69159,"BSTAR":6.7397254e-5,"MEAN_MOTION_DOT":4.54e-6,"MEAN_MOTION_DDOT":0},{"OBJECT_NAME":"SL-16 R/B","OBJECT_ID":"1994-077B","EPOCH":"2026-04-07T22:50:08.588256","MEAN_MOTION":14.15566997,"ECCENTRICITY":0.00014048,"INCLINATION":70.9814,"RA_OF_ASC_NODE":290.9282,"ARG_OF_PERICENTER":181.5445,"MEAN_ANOMALY":178.5674,"EPHEMERIS_TYPE":0,"CLASSIFICATION_TYPE":"U","NORAD_CAT_ID":23405,"ELEMENT_SET_NO":999,"REV_AT_EPOCH":62037,"BSTAR":-6.1313182e-5,"MEAN_MOTION_DOT":-1.68e-6,"MEAN_MOTION_DDOT":0},{"OBJECT_NAME":"ARIANE 40+ R/B","OBJECT_ID":"1995-021B","EPOCH":"2026-04-08T04:55:27.937344","MEAN_MOTION":14.39795028,"ECCENTRICITY":0.00076789,"INCLINATION":98.4448,"RA_OF_ASC_NODE":169.2805,"ARG_OF_PERICENTER":60.4488,"MEAN_ANOMALY":318.9781,"EPHEMERIS_TYPE":0,"CLASSIFICATION_TYPE":"U","NORAD_CAT_ID":23561,"ELEMENT_SET_NO":999,"REV_AT_EPOCH":62349,"BSTAR":0.00010343019,"MEAN_MOTION_DOT":2.81e-6,"MEAN_MOTION_DDOT":0},{"OBJECT_NAME":"SL-16 R/B","OBJECT_ID":"1995-058B","EPOCH":"2026-04-08T07:31:05.334816","MEAN_MOTION":14.15498623,"ECCENTRICITY":0.0010431,"INCLINATION":71.0187,"RA_OF_ASC_NODE":118.0625,"ARG_OF_PERICENTER":71.6384,"MEAN_ANOMALY":288.5872,"EPHEMERIS_TYPE":0,"CLASSIFICATION_TYPE":"U","NORAD_CAT_ID":23705,"ELEMENT_SET_NO":999,"REV_AT_EPOCH":57204,"BSTAR":0.00010165707,"MEAN_MOTION_DOT":1.51e-6,"MEAN_MOTION_DDOT":0},{"OBJECT_NAME":"SL-16 R/B","OBJECT_ID":"1996-051B","EPOCH":"2026-04-08T06:33:44.420256","MEAN_MOTION":14.12424087,"ECCENTRICITY":0.00128874,"INCLINATION":70.758,"RA_OF_ASC_NODE":112.6221,"ARG_OF_PERICENTER":98.7836,"MEAN_ANOMALY":261.4744,"EPHEMERIS_TYPE":0,"CLASSIFICATION_TYPE":"U","NORAD_CAT_ID":24298,"ELEMENT_SET_NO":999,"REV_AT_EPOCH":52582,"BSTAR":5.3598022e-5,"MEAN_MOTION_DOT":5.0e-7,"MEAN_MOTION_DDOT":0},{"OBJECT_NAME":"ORBVIEW 2 (SEASTAR)","OBJECT_ID":"1997-037A","EPOCH":"2026-04-08T04:19:50.375424","MEAN_MOTION":14.35516806,"ECCENTRICITY":0.00018611,"INCLINATION":98.8619,"RA_OF_ASC_NODE":263.2816,"ARG_OF_PERICENTER":3.4356,"MEAN_ANOMALY":356.6842,"EPHEMERIS_TYPE":0,"CLASSIFICATION_TYPE":"U","NORAD_CAT_ID":24883,"ELEMENT_SET_NO":999,"REV_AT_EPOCH":51270,"BSTAR":0.00010793095,"MEAN_MOTION_DOT":2.64e-6,"MEAN_MOTION_DDOT":0},{"OBJECT_NAME":"SL-16 R/B","OBJECT_ID":"1998-043G","EPOCH":"2026-04-08T06:29:13.171776","MEAN_MOTION":14.26056994,"ECCENTRICITY":0.00088262,"INCLINATION":98.8301,"RA_OF_ASC_NODE":51.8527,"ARG_OF_PERICENTER":291.4496,"MEAN_ANOMALY":68.5741,"EPHEMERIS_TYPE":0,"CLASSIFICATION_TYPE":"U","NORAD_CAT_ID":25400,"ELEMENT_SET_NO":999,"REV_AT_EPOCH":44320,"BSTAR":4.5599451e-5,"MEAN_MOTION_DOT":6.3e-7,"MEAN_MOTION_DDOT":0},{"OBJECT_NAME":"SL-16 R/B","OBJECT_ID":"1998-045B","EPOCH":"2026-04-08T07:25:52.040640","MEAN_MOTION":14.1619522,"ECCENTRICITY":0.00084327,"INCLINATION":71.0087,"RA_OF_ASC_NODE":119.2854,"ARG_OF_PERICENTER":325.441,"MEAN_ANOMALY":34.6164,"EPHEMERIS_TYPE":0,"CLASSIFICATION_TYPE":"U","NORAD_CAT_ID":25407,"ELEMENT_SET_NO":999,"REV_AT_EPOCH":43129,"BSTAR":0.00015127525,"MEAN_MOTION_DOT":2.52e-6,"MEAN_MOTION_DDOT":0},{"OBJECT_NAME":"ISS (ZARYA)","OBJECT_ID":"1998-067A","EPOCH":"2026-04-08T00:07:29.534880","MEAN_MOTION":15.48824658,"ECCENTRICITY":0.00063328,"INCLINATION":51.6328,"RA_OF_ASC_NODE":287.4161,"ARG_OF_PERICENTER":285.7518,"MEAN_ANOMALY":74.2772,"EPHEMERIS_TYPE":0,"CLASSIFICATION_TYPE":"U","NORAD_CAT_ID":25544,"ELEMENT_SET_NO":999,"REV_AT_EPOCH":56087,"BSTAR":0.00014015075,"MEAN_MOTION_DOT":7.234e-5,"MEAN_MOTION_DDOT":0},{"OBJECT_NAME":"CZ-4B R/B","OBJECT_ID":"1999-025C","EPOCH":"2026-04-08T03:45:12.672288","MEAN_MOTION":14.1827153,"ECCENTRICITY":0.00359892,"INCLINATION":98.6564,"RA_OF_ASC_NODE":141.7315,"ARG_OF_PERICENTER":259.7623,"MEAN_ANOMALY":170.4338,"EPHEMERIS_TYPE":0,"CLASSIFICATION_TYPE":"U","NORAD_CAT_ID":25732,"ELEMENT_SET_NO":999,"REV_AT_EPOCH":39234,"BSTAR":4.5465984e-5,"MEAN_MOTION_DOT":5.1e-7,"MEAN_MOTION_DDOT":0},{"OBJECT_NAME":"OKEAN-O","OBJECT_ID":"1999-039A","EPOCH":"2026-04-08T02:55:58.920672","MEAN_MOTION":14.80385013,"ECCENTRICITY":9.92e-5,"INCLINATION":97.9382,"RA_OF_ASC_NODE":157.7054,"ARG_OF_PERICENTER":109.6309,"MEAN_ANOMALY":250.5011,"EPHEMERIS_TYPE":0,"CLASSIFICATION_TYPE":"U","NORAD_CAT_ID":25860,"ELEMENT_SET_NO":999,"REV_AT_EPOCH":43874,"BSTAR":8.7636667e-5,"MEAN_MOTION_DOT":6.17e-6,"MEAN_MOTION_DDOT":0},{"OBJECT_NAME":"SL-16 R/B","OBJECT_ID":"1999-039B","EPOCH":"2026-04-08T01:47:12.561216","MEAN_MOTION":14.81774569,"ECCENTRICITY":0.00153495,"INCLINATION":97.9903,"RA_OF_ASC_NODE":157.1178,"ARG_OF_PERICENTER":157.3874,"MEAN_ANOMALY":202.8018,"EPHEMERIS_TYPE":0,"CLASSIFICATION_TYPE":"U","NORAD_CAT_ID":25861,"ELEMENT_SET_NO":999,"REV_AT_EPOCH":44121,"BSTAR":8.1057845e-5,"MEAN_MOTION_DOT":5.87e-6,"MEAN_MOTION_DDOT":0},{"OBJECT_NAME":"DELTA 2 R/B","OBJECT_ID":"1999-041E","EPOCH":"2026-04-08T05:51:51.585120","MEAN_MOTION":14.11905801,"ECCENTRICITY":0.05026279,"INCLINATION":51.7608,"RA_OF_ASC_NODE":183.2149,"ARG_OF_PERICENTER":75.5846,"MEAN_ANOMALY":290.0309,"EPHEMERIS_TYPE":0,"CLASSIFICATION_TYPE":"U","NORAD_CAT_ID":25876,"ELEMENT_SET_NO":999,"REV_AT_EPOCH":36720,"BSTAR":0.00014072958,"MEAN_MOTION_DOT":6.26e-6,"MEAN_MOTION_DDOT":0}]
